[
  {
    "name": "Afghanistan",
    "nameAr": "Ø£ÙØºØ§Ù†Ø³ØªØ§Ù†",
    "code": "AF",
    "dialCode": "+93",
    "flag": "ğŸ‡¦ğŸ‡«"
  },
  {
    "name": "Albania",
    "nameAr": "Ø£Ù„Ø¨Ø§Ù†ÙŠØ§",
    "code": "AL",
    "dialCode": "+355",
    "flag": "ğŸ‡¦ğŸ‡±"
  },
  {
    "name": "Algeria",
    "nameAr": "Ø§Ù„Ø¬Ø²Ø§Ø¦Ø±",
    "code": "DZ",
    "dialCode": "+213",
    "flag": "ğŸ‡©ğŸ‡¿"
  },
  {
    "name": "Argentina",
    "nameAr": "Ø§Ù„Ø£Ø±Ø¬Ù†ØªÙŠÙ†",
    "code": "AR",
    "dialCode": "+54",
    "flag": "ğŸ‡¦ğŸ‡·"
  },
  {
    "name": "Australia",
    "nameAr": "Ø£Ø³ØªØ±Ø§Ù„ÙŠØ§",
    "code": "AU",
    "dialCode": "+61",
    "flag": "ğŸ‡¦ğŸ‡º"
  },
  {
    "name": "Austria",
    "nameAr": "Ø§Ù„Ù†Ù…Ø³Ø§",
    "code": "AT",
    "dialCode": "+43",
    "flag": "ğŸ‡¦ğŸ‡¹"
  },
  {
    "name": "Bahrain",
    "nameAr": "Ø§Ù„Ø¨Ø­Ø±ÙŠÙ†",
    "code": "BH",
    "dialCode": "+973",
    "flag": "ğŸ‡§ğŸ‡­"
  },
  {
    "name": "Bangladesh",
    "nameAr": "Ø¨Ù†ØºÙ„Ø§Ø¯ÙŠØ´",
    "code": "BD",
    "dialCode": "+880",
    "flag": "ğŸ‡§ğŸ‡©"
  },
  {
    "name": "Belgium",
    "nameAr": "Ø¨Ù„Ø¬ÙŠÙƒØ§",
    "code": "BE",
    "dialCode": "+32",
    "flag": "ğŸ‡§ğŸ‡ª"
  },
  {
    "name": "Brazil",
    "nameAr": "Ø§Ù„Ø¨Ø±Ø§Ø²ÙŠÙ„",
    "code": "BR",
    "dialCode": "+55",
    "flag": "ğŸ‡§ğŸ‡·"
  },
  {
    "name": "Canada",
    "nameAr": "ÙƒÙ†Ø¯Ø§",
    "code": "CA",
    "dialCode": "+1",
    "flag": "ğŸ‡¨ğŸ‡¦"
  },
  {
    "name": "China",
    "nameAr": "Ø§Ù„ØµÙŠÙ†",
    "code": "CN",
    "dialCode": "+86",
    "flag": "ğŸ‡¨ğŸ‡³"
  },
  {
    "name": "Denmark",
    "nameAr": "Ø§Ù„Ø¯Ù†Ù…Ø§Ø±Ùƒ",
    "code": "DK",
    "dialCode": "+45",
    "flag": "ğŸ‡©ğŸ‡°"
  },
  {
    "name": "Egypt",
    "nameAr": "Ù…ØµØ±",
    "code": "EG",
    "dialCode": "+20",
    "flag": "ğŸ‡ªğŸ‡¬"
  },
  {
    "name": "Finland",
    "nameAr": "ÙÙ†Ù„Ù†Ø¯Ø§",
    "code": "FI",
    "dialCode": "+358",
    "flag": "ğŸ‡«ğŸ‡®"
  },
  {
    "name": "France",
    "nameAr": "ÙØ±Ù†Ø³Ø§",
    "code": "FR",
    "dialCode": "+33",
    "flag": "ğŸ‡«ğŸ‡·"
  },
  {
    "name": "Germany",
    "nameAr": "Ø£Ù„Ù…Ø§Ù†ÙŠØ§",
    "code": "DE",
    "dialCode": "+49",
    "flag": "ğŸ‡©ğŸ‡ª"
  },
  {
    "name": "Greece",
    "nameAr": "Ø§Ù„ÙŠÙˆÙ†Ø§Ù†",
    "code": "GR",
    "dialCode": "+30",
    "flag": "ğŸ‡¬ğŸ‡·"
  },
  {
    "name": "India",
    "nameAr": "Ø§Ù„Ù‡Ù†Ø¯",
    "code": "IN",
    "dialCode": "+91",
    "flag": "ğŸ‡®ğŸ‡³"
  },
  {
    "name": "Indonesia",
    "nameAr": "Ø¥Ù†Ø¯ÙˆÙ†ÙŠØ³ÙŠØ§",
    "code": "ID",
    "dialCode": "+62",
    "flag": "ğŸ‡®ğŸ‡©"
  },
  {
    "name": "Iran",
    "nameAr": "Ø¥ÙŠØ±Ø§Ù†",
    "code": "IR",
    "dialCode": "+98",
    "flag": "ğŸ‡®ğŸ‡·"
  },
  {
    "name": "Iraq",
    "nameAr": "Ø§Ù„Ø¹Ø±Ø§Ù‚",
    "code": "IQ",
    "dialCode": "+964",
    "flag": "ğŸ‡®ğŸ‡¶"
  },
  {
    "name": "Ireland",
    "nameAr": "Ø£ÙŠØ±Ù„Ù†Ø¯Ø§",
    "code": "IE",
    "dialCode": "+353",
    "flag": "ğŸ‡®ğŸ‡ª"
  },
  {
    "name": "Italy",
    "nameAr": "Ø¥ÙŠØ·Ø§Ù„ÙŠØ§",
    "code": "IT",
    "dialCode": "+39",
    "flag": "ğŸ‡®ğŸ‡¹"
  },
  {
    "name": "Japan",
    "nameAr": "Ø§Ù„ÙŠØ§Ø¨Ø§Ù†",
    "code": "JP",
    "dialCode": "+81",
    "flag": "ğŸ‡¯ğŸ‡µ"
  },
  {
    "name": "Jordan",
    "nameAr": "Ø§Ù„Ø£Ø±Ø¯Ù†",
    "code": "JO",
    "dialCode": "+962",
    "flag": "ğŸ‡¯ğŸ‡´"
  },
  {
    "name": "Kuwait",
    "nameAr": "Ø§Ù„ÙƒÙˆÙŠØª",
    "code": "KW",
    "dialCode": "+965",
    "flag": "ğŸ‡°ğŸ‡¼"
  },
  {
    "name": "Lebanon",
    "nameAr": "Ù„Ø¨Ù†Ø§Ù†",
    "code": "LB",
    "dialCode": "+961",
    "flag": "ğŸ‡±ğŸ‡§"
  },
  {
    "name": "Libya",
    "nameAr": "Ù„ÙŠØ¨ÙŠØ§",
    "code": "LY",
    "dialCode": "+218",
    "flag": "ğŸ‡±ğŸ‡¾"
  },
  {
    "name": "Malaysia",
    "nameAr": "Ù…Ø§Ù„ÙŠØ²ÙŠØ§",
    "code": "MY",
    "dialCode": "+60",
    "flag": "ğŸ‡²ğŸ‡¾"
  },
  {
    "name": "Morocco",
    "nameAr": "Ø§Ù„Ù…ØºØ±Ø¨",
    "code": "MA",
    "dialCode": "+212",
    "flag": "ğŸ‡²ğŸ‡¦"
  },
  {
    "name": "Netherlands",
    "nameAr": "Ù‡ÙˆÙ„Ù†Ø¯Ø§",
    "code": "NL",
    "dialCode": "+31",
    "flag": "ğŸ‡³ğŸ‡±"
  },
  {
    "name": "New Zealand",
    "nameAr": "Ù†ÙŠÙˆØ²ÙŠÙ„Ù†Ø¯Ø§",
    "code": "NZ",
    "dialCode": "+64",
    "flag": "ğŸ‡³ğŸ‡¿"
  },
  {
    "name": "Norway",
    "nameAr": "Ø§Ù„Ù†Ø±ÙˆÙŠØ¬",
    "code": "NO",
    "dialCode": "+47",
    "flag": "ğŸ‡³ğŸ‡´"
  },
  {
    "name": "Oman",
    "nameAr": "Ø¹ÙÙ…Ø§Ù†",
    "code": "OM",
    "dialCode": "+968",
    "flag": "ğŸ‡´ğŸ‡²"
  },
  {
    "name": "Pakistan",
    "nameAr": "Ø¨Ø§ÙƒØ³ØªØ§Ù†",
    "code": "PK",
    "dialCode": "+92",
    "flag": "ğŸ‡µğŸ‡°"
  },
  {
    "name": "Palestine",
    "nameAr": "ÙÙ„Ø³Ø·ÙŠÙ†",
    "code": "PS",
    "dialCode": "+970",
    "flag": "ğŸ‡µğŸ‡¸"
  },
  {
    "name": "Poland",
    "nameAr": "Ø¨ÙˆÙ„Ù†Ø¯Ø§",
    "code": "PL",
    "dialCode": "+48",
    "flag": "ğŸ‡µğŸ‡±"
  },
  {
    "name": "Portugal",
    "nameAr": "Ø§Ù„Ø¨Ø±ØªØºØ§Ù„",
    "code": "PT",
    "dialCode": "+351",
    "flag": "ğŸ‡µğŸ‡¹"
  },
  {
    "name": "Qatar",
    "nameAr": "Ù‚Ø·Ø±",
    "code": "QA",
    "dialCode": "+974",
    "flag": "ğŸ‡¶ğŸ‡¦"
  },
  {
    "name": "Russia",
    "nameAr": "Ø±ÙˆØ³ÙŠØ§",
    "code": "RU",
    "dialCode": "+7",
    "flag": "ğŸ‡·ğŸ‡º"
  },
  {
    "name": "Saudi Arabia",
    "nameAr": "Ø§Ù„Ù…Ù…Ù„ÙƒØ© Ø§Ù„Ø¹Ø±Ø¨ÙŠØ© Ø§Ù„Ø³Ø¹ÙˆØ¯ÙŠØ©",
    "code": "SA",
    "dialCode": "+966",
    "flag": "ğŸ‡¸ğŸ‡¦"
  },
  {
    "name": "Singapore",
    "nameAr": "Ø³Ù†ØºØ§ÙÙˆØ±Ø©",
    "code": "SG",
    "dialCode": "+65",
    "flag": "ğŸ‡¸ğŸ‡¬"
  },
  {
    "name": "South Africa",
    "nameAr": "Ø¬Ù†ÙˆØ¨ Ø£ÙØ±ÙŠÙ‚ÙŠØ§",
    "code": "ZA",
    "dialCode": "+27",
    "flag": "ğŸ‡¿ğŸ‡¦"
  },
  {
    "name": "South Korea",
    "nameAr": "ÙƒÙˆØ±ÙŠØ§ Ø§Ù„Ø¬Ù†ÙˆØ¨ÙŠØ©",
    "code": "KR",
    "dialCode": "+82",
    "flag": "ğŸ‡°ğŸ‡·"
  },
  {
    "name": "Spain",
    "nameAr": "Ø¥Ø³Ø¨Ø§Ù†ÙŠØ§",
    "code": "ES",
    "dialCode": "+34",
    "flag": "ğŸ‡ªğŸ‡¸"
  },
  {
    "name": "Sudan",
    "nameAr": "Ø§Ù„Ø³ÙˆØ¯Ø§Ù†",
    "code": "SD",
    "dialCode": "+249",
    "flag": "ğŸ‡¸ğŸ‡©"
  },
  {
    "name": "Sweden",
    "nameAr": "Ø§Ù„Ø³ÙˆÙŠØ¯",
    "code": "SE",
    "dialCode": "+46",
    "flag": "ğŸ‡¸ğŸ‡ª"
  },
  {
    "name": "Switzerland",
    "nameAr": "Ø³ÙˆÙŠØ³Ø±Ø§",
    "code": "CH",
    "dialCode": "+41",
    "flag": "ğŸ‡¨ğŸ‡­"
  },
  {
    "name": "Syria",
    "nameAr": "Ø³ÙˆØ±ÙŠØ§",
    "code": "SY",
    "dialCode": "+963",
    "flag": "ğŸ‡¸ğŸ‡¾"
  },
  {
    "name": "Thailand",
    "nameAr": "ØªØ§ÙŠÙ„Ø§Ù†Ø¯",
    "code": "TH",
    "dialCode": "+66",
    "flag": "ğŸ‡¹ğŸ‡­"
  },
  {
    "name": "Tunisia",
    "nameAr": "ØªÙˆÙ†Ø³",
    "code": "TN",
    "dialCode": "+216",
    "flag": "ğŸ‡¹ğŸ‡³"
  },
  {
    "name": "Turkey",
    "nameAr": "ØªØ±ÙƒÙŠØ§",
    "code": "TR",
    "dialCode": "+90",
    "flag": "ğŸ‡¹ğŸ‡·"
  },
  {
    "name": "Ukraine",
    "nameAr": "Ø£ÙˆÙƒØ±Ø§Ù†ÙŠØ§",
    "code": "UA",
    "dialCode": "+380",
    "flag": "ğŸ‡ºğŸ‡¦"
  },
  {
    "name": "United Arab Emirates",
    "nameAr": "Ø§Ù„Ø¥Ù…Ø§Ø±Ø§Øª Ø§Ù„Ø¹Ø±Ø¨ÙŠØ© Ø§Ù„Ù…ØªØ­Ø¯Ø©",
    "code": "AE",
    "dialCode": "+971",
    "flag": "ğŸ‡¦ğŸ‡ª"
  },
  {
    "name": "United Kingdom",
    "nameAr": "Ø§Ù„Ù…Ù…Ù„ÙƒØ© Ø§Ù„Ù…ØªØ­Ø¯Ø©",
    "code": "GB",
    "dialCode": "+44",
    "flag": "ğŸ‡¬ğŸ‡§"
  },
  {
    "name": "United States",
    "nameAr": "Ø§Ù„ÙˆÙ„Ø§ÙŠØ§Øª Ø§Ù„Ù…ØªØ­Ø¯Ø©",
    "code": "US",
    "dialCode": "+1",
    "flag": "ğŸ‡ºğŸ‡¸"
  },
  {
    "name": "Yemen",
    "nameAr": "Ø§Ù„ÙŠÙ…Ù†",
    "code": "YE",
    "dialCode": "+967",
    "flag": "ğŸ‡¾ğŸ‡ª"
  }
]
